ONEWEB-0120             
1 47266U 20100J   26107.16300315  .00000404  00000+0  10872-2 0  9990
2 47266  87.8996   2.7979 0001733  76.5213 283.6109 13.12441967256725
ONEWEB-0121             
1 47267U 20100K   26107.15100996  .00000287  00000+0  76135-3 0  9997
2 47267  87.9007   2.7805 0002026  80.8813 279.2545 13.12442572256636
ONEWEB-0122             
1 47268U 20100L   26107.14508093  .00000273  00000+0  72348-3 0  9994
2 47268  87.9011   2.7848 0001895  74.6822 285.4516 13.12443393256542
ONEWEB-0123             
1 47269U 20100M   26107.14083847  .00000069  00000+0  15572-3 0  9999
2 47269  87.8995   2.8005 0001671  80.1934 279.9383 13.12443589256689
ONEWEB-0124             
1 47270U 20100N   26107.13067183 -.00000166  00000+0 -49539-3 0  9995
2 47270  87.8996   2.8064 0001857  83.2291 276.9048 13.12443324256562
ONEWEB-0125             
1 47271U 20100P   26107.10865565 -.00000244  00000+0 -71451-3 0  9998
2 47271  87.9014   2.7869 0001697  90.3150 269.8173 13.12441541256628
ONEWEB-0126             
1 47272U 20100Q   26107.12911548 -.00000409  00000+0 -11709-2 0  9996
2 47272  87.9013   2.7998 0001705  67.7807 292.3502 13.12443644256698
ONEWEB-0127             
1 47273U 20100R   26107.17134420  .00000214  00000+0  56055-3 0  9994
2 47273  87.8995   2.7961 0001769  74.6441 285.4883 13.12441914256725
ONEWEB-0128             
1 47274U 20100S   26107.11712434 -.00000435  00000+0 -12437-2 0  9998
2 47274  87.9004   2.8205 0002163  79.7784 280.3589 13.12440798256732
ONEWEB-0129             
1 47275U 20100T   26107.09679484  .00000173  00000+0  44589-3 0  9994
2 47275  87.9010   2.7921 0001711  40.9203 319.2054 13.12441089256663
ONEWEB-0130             
1 47276U 20100U   26107.12389465 -.00000322  00000+0 -92966-3 0  9996
2 47276  87.9010   2.7816 0001827  75.7606 284.3726 13.12442817256633
ONEWEB-0131             
1 47277U 20100V   26107.12050692 -.00000353  00000+0 -10178-2 0  9992
2 47277  87.8994   2.8069 0001885  79.0461 281.0880 13.12442158256672
ONEWEB-0132             
1 47278U 20100W   26107.14931485  .00000422  00000+0  11380-2 0  9994
2 47278  87.8999   2.8015 0001840  79.8653 280.2683 13.12443260256577
ONEWEB-0133             
1 47279U 20100X   26107.16612333  .00000392  00000+0  10536-2 0  9993
2 47279  87.9012   2.7673 0001958  79.5446 280.5903 13.12441745256733
ONEWEB-0134             
1 47280U 20100Y   26107.13575507 -.00000165  00000+0 -49296-3 0  9999
2 47280  87.9010   2.7705 0002015  73.4167 286.7183 13.12444017256707
ONEWEB-0135             
1 47281U 20100Z   26107.18319835 -.00000200  00000+0 -59194-3 0  9993
2 47281  87.9000   2.7915 0002050  74.2280 285.9075 13.12440781256732
ONEWEB-0136             
1 47282U 20100AA  26107.12559497 -.00000287  00000+0 -83290-3 0  9997
2 47282  87.9002   2.7795 0002028  71.7425 288.3924 13.12442492256651
