[{"OBJECT_NAME":"ONEWEB-0120","OBJECT_ID":"2020-100J","EPOCH":"2026-04-17T03:54:43.472160","MEAN_MOTION":13.12441967,"ECCENTRICITY":0.0001733,"INCLINATION":87.8996,"RA_OF_ASC_NODE":2.7979,"ARG_OF_PERICENTER":76.5213,"MEAN_ANOMALY":283.6109,"EPHEMERIS_TYPE":0,"CLASSIFICATION_TYPE":"U","NORAD_CAT_ID":47266,"ELEMENT_SET_NO":999,"REV_AT_EPOCH":25672,"BSTAR":0.0010872,"MEAN_MOTION_DOT":4.04e-06,"MEAN_MOTION_DDOT":0.0},{"OBJECT_NAME":"ONEWEB-0121","OBJECT_ID":"2020-100K","EPOCH":"2026-04-17T03:37:27.260544","MEAN_MOTION":13.12442572,"ECCENTRICITY":0.0002026,"INCLINATION":87.9007,"RA_OF_ASC_NODE":2.7805,"ARG_OF_PERICENTER":80.8813,"MEAN_ANOMALY":279.2545,"EPHEMERIS_TYPE":0,"CLASSIFICATION_TYPE":"U","NORAD_CAT_ID":47267,"ELEMENT_SET_NO":999,"REV_AT_EPOCH":25663,"BSTAR":0.0007613499999999999,"MEAN_MOTION_DOT":2.87e-06,"MEAN_MOTION_DDOT":0.0},{"OBJECT_NAME":"ONEWEB-0122","OBJECT_ID":"2020-100L","EPOCH":"2026-04-17T03:28:54.992352","MEAN_MOTION":13.12443393,"ECCENTRICITY":0.0001895,"INCLINATION":87.9011,"RA_OF_ASC_NODE":2.7848,"ARG_OF_PERICENTER":74.6822,"MEAN_ANOMALY":285.4516,"EPHEMERIS_TYPE":0,"CLASSIFICATION_TYPE":"U","NORAD_CAT_ID":47268,"ELEMENT_SET_NO":999,"REV_AT_EPOCH":25654,"BSTAR":0.00072348,"MEAN_MOTION_DOT":2.73e-06,"MEAN_MOTION_DDOT":0.0},{"OBJECT_NAME":"ONEWEB-0123","OBJECT_ID":"2020-100M","EPOCH":"2026-04-17T03:22:48.443808","MEAN_MOTION":13.12443589,"ECCENTRICITY":0.0001671,"INCLINATION":87.8995,"RA_OF_ASC_NODE":2.8005,"ARG_OF_PERICENTER":80.1934,"MEAN_ANOMALY":279.9383,"EPHEMERIS_TYPE":0,"CLASSIFICATION_TYPE":"U","NORAD_CAT_ID":47269,"ELEMENT_SET_NO":999,"REV_AT_EPOCH":25668,"BSTAR":0.00015572,"MEAN_MOTION_DOT":6.9e-07,"MEAN_MOTION_DDOT":0.0},{"OBJECT_NAME":"ONEWEB-0124","OBJECT_ID":"2020-100N","EPOCH":"2026-04-17T03:08:10.046112","MEAN_MOTION":13.12443324,"ECCENTRICITY":0.0001857,"INCLINATION":87.8996,"RA_OF_ASC_NODE":2.8064,"ARG_OF_PERICENTER":83.2291,"MEAN_ANOMALY":276.9048,"EPHEMERIS_TYPE":0,"CLASSIFICATION_TYPE":"U","NORAD_CAT_ID":47270,"ELEMENT_SET_NO":999,"REV_AT_EPOCH":25656,"BSTAR":-0.00049539,"MEAN_MOTION_DOT":-1.66e-06,"MEAN_MOTION_DDOT":0.0},{"OBJECT_NAME":"ONEWEB-0125","OBJECT_ID":"2020-100P","EPOCH":"2026-04-17T02:36:27.848160","MEAN_MOTION":13.12441541,"ECCENTRICITY":0.0001697,"INCLINATION":87.9014,"RA_OF_ASC_NODE":2.7869,"ARG_OF_PERICENTER":90.315,"MEAN_ANOMALY":269.8173,"EPHEMERIS_TYPE":0,"CLASSIFICATION_TYPE":"U","NORAD_CAT_ID":47271,"ELEMENT_SET_NO":999,"REV_AT_EPOCH":25662,"BSTAR":-0.00071451,"MEAN_MOTION_DOT":-2.44e-06,"MEAN_MOTION_DDOT":0.0},{"OBJECT_NAME":"ONEWEB-0126","OBJECT_ID":"2020-100Q","EPOCH":"2026-04-17T03:05:55.577472","MEAN_MOTION":13.12443644,"ECCENTRICITY":0.0001705,"INCLINATION":87.9013,"RA_OF_ASC_NODE":2.7998,"ARG_OF_PERICENTER":67.7807,"MEAN_ANOMALY":292.3502,"EPHEMERIS_TYPE":0,"CLASSIFICATION_TYPE":"U","NORAD_CAT_ID":47272,"ELEMENT_SET_NO":999,"REV_AT_EPOCH":25669,"BSTAR":-0.0011709000000000001,"MEAN_MOTION_DOT":-4.09e-06,"MEAN_MOTION_DDOT":0.0},{"OBJECT_NAME":"ONEWEB-0127","OBJECT_ID":"2020-100R","EPOCH":"2026-04-17T04:06:44.138880","MEAN_MOTION":13.12441914,"ECCENTRICITY":0.0001769,"INCLINATION":87.8995,"RA_OF_ASC_NODE":2.7961,"ARG_OF_PERICENTER":74.6441,"MEAN_ANOMALY":285.4883,"EPHEMERIS_TYPE":0,"CLASSIFICATION_TYPE":"U","NORAD_CAT_ID":47273,"ELEMENT_SET_NO":999,"REV_AT_EPOCH":25672,"BSTAR":0.00056055,"MEAN_MOTION_DOT":2.14e-06,"MEAN_MOTION_DDOT":0.0},{"OBJECT_NAME":"ONEWEB-0128","OBJECT_ID":"2020-100S","EPOCH":"2026-04-17T02:48:39.542976","MEAN_MOTION":13.12440798,"ECCENTRICITY":0.0002163,"INCLINATION":87.9004,"RA_OF_ASC_NODE":2.8205,"ARG_OF_PERICENTER":79.7784,"MEAN_ANOMALY":280.3589,"EPHEMERIS_TYPE":0,"CLASSIFICATION_TYPE":"U","NORAD_CAT_ID":47274,"ELEMENT_SET_NO":999,"REV_AT_EPOCH":25673,"BSTAR":-0.0012437,"MEAN_MOTION_DOT":-4.35e-06,"MEAN_MOTION_DDOT":0.0},{"OBJECT_NAME":"ONEWEB-0129","OBJECT_ID":"2020-100T","EPOCH":"2026-04-17T02:19:23.074176","MEAN_MOTION":13.12441089,"ECCENTRICITY":0.0001711,"INCLINATION":87.901,"RA_OF_ASC_NODE":2.7921,"ARG_OF_PERICENTER":40.9203,"MEAN_ANOMALY":319.2054,"EPHEMERIS_TYPE":0,"CLASSIFICATION_TYPE":"U","NORAD_CAT_ID":47275,"ELEMENT_SET_NO":999,"REV_AT_EPOCH":25666,"BSTAR":0.00044589,"MEAN_MOTION_DOT":1.73e-06,"MEAN_MOTION_DDOT":0.0},{"OBJECT_NAME":"ONEWEB-0130","OBJECT_ID":"2020-100U","EPOCH":"2026-04-17T02:58:24.497760","MEAN_MOTION":13.12442817,"ECCENTRICITY":0.0001827,"INCLINATION":87.901,"RA_OF_ASC_NODE":2.7816,"ARG_OF_PERICENTER":75.7606,"MEAN_ANOMALY":284.3726,"EPHEMERIS_TYPE":0,"CLASSIFICATION_TYPE":"U","NORAD_CAT_ID":47276,"ELEMENT_SET_NO":999,"REV_AT_EPOCH":25663,"BSTAR":-0.00092966,"MEAN_MOTION_DOT":-3.22e-06,"MEAN_MOTION_DDOT":0.0},{"OBJECT_NAME":"ONEWEB-0131","OBJECT_ID":"2020-100V","EPOCH":"2026-04-17T02:53:31.797888","MEAN_MOTION":13.12442158,"ECCENTRICITY":0.0001885,"INCLINATION":87.8994,"RA_OF_ASC_NODE":2.8069,"ARG_OF_PERICENTER":79.0461,"MEAN_ANOMALY":281.088,"EPHEMERIS_TYPE":0,"CLASSIFICATION_TYPE":"U","NORAD_CAT_ID":47277,"ELEMENT_SET_NO":999,"REV_AT_EPOCH":25667,"BSTAR":-0.0010178,"MEAN_MOTION_DOT":-3.53e-06,"MEAN_MOTION_DDOT":0.0},{"OBJECT_NAME":"ONEWEB-0132","OBJECT_ID":"2020-100W","EPOCH":"2026-04-17T03:35:00.803040","MEAN_MOTION":13.1244326,"ECCENTRICITY":0.000184,"INCLINATION":87.8999,"RA_OF_ASC_NODE":2.8015,"ARG_OF_PERICENTER":79.8653,"MEAN_ANOMALY":280.2683,"EPHEMERIS_TYPE":0,"CLASSIFICATION_TYPE":"U","NORAD_CAT_ID":47278,"ELEMENT_SET_NO":999,"REV_AT_EPOCH":25657,"BSTAR":0.001138,"MEAN_MOTION_DOT":4.22e-06,"MEAN_MOTION_DDOT":0.0},{"OBJECT_NAME":"ONEWEB-0133","OBJECT_ID":"2020-100X","EPOCH":"2026-04-17T03:59:13.055712","MEAN_MOTION":13.12441745,"ECCENTRICITY":0.0001958,"INCLINATION":87.9012,"RA_OF_ASC_NODE":2.7673,"ARG_OF_PERICENTER":79.5446,"MEAN_ANOMALY":280.5903,"EPHEMERIS_TYPE":0,"CLASSIFICATION_TYPE":"U","NORAD_CAT_ID":47279,"ELEMENT_SET_NO":999,"REV_AT_EPOCH":25673,"BSTAR":0.0010536,"MEAN_MOTION_DOT":3.92e-06,"MEAN_MOTION_DDOT":0.0},{"OBJECT_NAME":"ONEWEB-0134","OBJECT_ID":"2020-100Y","EPOCH":"2026-04-17T03:15:29.238048","MEAN_MOTION":13.12444017,"ECCENTRICITY":0.0002015,"INCLINATION":87.901,"RA_OF_ASC_NODE":2.7705,"ARG_OF_PERICENTER":73.4167,"MEAN_ANOMALY":286.7183,"EPHEMERIS_TYPE":0,"CLASSIFICATION_TYPE":"U","NORAD_CAT_ID":47280,"ELEMENT_SET_NO":999,"REV_AT_EPOCH":25670,"BSTAR":-0.00049296,"MEAN_MOTION_DOT":-1.65e-06,"MEAN_MOTION_DDOT":0.0},{"OBJECT_NAME":"ONEWEB-0135","OBJECT_ID":"2020-100Z","EPOCH":"2026-04-17T04:23:48.337440","MEAN_MOTION":13.12440781,"ECCENTRICITY":0.000205,"INCLINATION":87.9,"RA_OF_ASC_NODE":2.7915,"ARG_OF_PERICENTER":74.228,"MEAN_ANOMALY":285.9075,"EPHEMERIS_TYPE":0,"CLASSIFICATION_TYPE":"U","NORAD_CAT_ID":47281,"ELEMENT_SET_NO":999,"REV_AT_EPOCH":25673,"BSTAR":-0.00059194,"MEAN_MOTION_DOT":-2e-06,"MEAN_MOTION_DDOT":0.0},{"OBJECT_NAME":"ONEWEB-0136","OBJECT_ID":"2020-100AA","EPOCH":"2026-04-17T03:00:51.405408","MEAN_MOTION":13.12442492,"ECCENTRICITY":0.0002028,"INCLINATION":87.9002,"RA_OF_ASC_NODE":2.7795,"ARG_OF_PERICENTER":71.7425,"MEAN_ANOMALY":288.3924,"EPHEMERIS_TYPE":0,"CLASSIFICATION_TYPE":"U","NORAD_CAT_ID":47282,"ELEMENT_SET_NO":999,"REV_AT_EPOCH":25665,"BSTAR":-0.0008329,"MEAN_MOTION_DOT":-2.87e-06,"MEAN_MOTION_DDOT":0.0}]